start=new Date('2022-01-26T00:00:00.000Z').valueOf();
sats=[{"GP_ID":"194643238","ELEMENT_SET_NO":"999","PERIAPSIS":"546.062","FILE":"3283711","MEAN_MOTION":"15.06389729","RCS_SIZE":"LARGE","MEAN_MOTION_DDOT":"0.0000000000000","MEAN_ANOMALY":"205.2196","OBJECT_ID":"2020-062BB","PERIOD":"95.593","TLE_LINE2":"2 46374  53.0539 217.4134 0001708 154.8877 205.2196 15.06389729 78638","SITE":"AFETR","ARG_OF_PERICENTER":"154.8877","TIME_SYSTEM":"UTC","CENTER_NAME":"EARTH","MEAN_ELEMENT_THEORY":"SGP4","TLE_LINE1":"1 46374U 20062BB  22025.89701372 -.00000676  00000-0 -26458-4 0  9992","REF_FRAME":"TEME","OBJECT_TYPE":"PAYLOAD","REV_AT_EPOCH":"7863","MEAN_MOTION_DOT":"-0.00000676","EPOCH":"2022-01-25T21:31:41.985408","LAUNCH_DATE":"2020-09-03","COUNTRY_CODE":"US","DECAY_DATE":null,"RA_OF_ASC_NODE":"217.4134","NORAD_CAT_ID":"46374","APOAPSIS":"548.428","ECCENTRICITY":"0.00017080","OBJECT_NAME":"STARLINK-1711","EPHEMERIS_TYPE":"0","BSTAR":"-0.00002645800000","INCLINATION":"53.0539","CLASSIFICATION_TYPE":"U","SEMIMAJOR_AXIS":"6925.380"},{"TIME_SYSTEM":"UTC","ARG_OF_PERICENTER":"64.6869","SITE":"AFETR","TLE_LINE2":"2 46375  53.0530 242.3375 0001902  64.6869 295.4317 15.06398131 78283","PERIOD":"95.592","OBJECT_ID":"2020-062BC","MEAN_ANOMALY":"295.4317","MEAN_MOTION_DDOT":"0.0000000000000","RCS_SIZE":"LARGE","MEAN_MOTION":"15.06398131","FILE":"3283711","ELEMENT_SET_NO":"999","PERIAPSIS":"545.902","GP_ID":"194643490","CLASSIFICATION_TYPE":"U","BSTAR":"0.00002947400000","INCLINATION":"53.0530","EPHEMERIS_TYPE":"0","SEMIMAJOR_AXIS":"6925.354","OBJECT_NAME":"STARLINK-1724","NORAD_CAT_ID":"46375","APOAPSIS":"548.536","ECCENTRICITY":"0.00019020","RA_OF_ASC_NODE":"242.3375","DECAY_DATE":null,"COUNTRY_CODE":"US","LAUNCH_DATE":"2020-09-03","REV_AT_EPOCH":"7828","OBJECT_TYPE":"PAYLOAD","MEAN_MOTION_DOT":"0.00000157","EPOCH":"2022-01-25T21:52:15.864672","MEAN_ELEMENT_THEORY":"SGP4","TLE_LINE1":"1 46375U 20062BC  22025.91129473  .00000157  00000-0  29474-4 0  9995","REF_FRAME":"TEME","CENTER_NAME":"EARTH"},{"GP_ID":"194644240","PERIAPSIS":"545.889","ELEMENT_SET_NO":"999","MEAN_MOTION":"15.06384464","RCS_SIZE":"LARGE","FILE":"3283711","OBJECT_ID":"2020-062BD","MEAN_MOTION_DDOT":"0.0000000000000","MEAN_ANOMALY":"288.2440","SITE":"AFETR","TIME_SYSTEM":"UTC","ARG_OF_PERICENTER":"71.8764","PERIOD":"95.593","TLE_LINE2":"2 46376  53.0524 242.5697 0001981  71.8764 288.2440 15.06384464 78277","CENTER_NAME":"EARTH","LAUNCH_DATE":"2020-09-03","REF_FRAME":"TEME","TLE_LINE1":"1 46376U 20062BD  22025.85968978 -.00000773  00000-0 -33013-4 0  9990","MEAN_ELEMENT_THEORY":"SGP4","REV_AT_EPOCH":"7827","OBJECT_TYPE":"PAYLOAD","MEAN_MOTION_DOT":"-0.00000773","EPOCH":"2022-01-25T20:37:57.196992","DECAY_DATE":null,"RA_OF_ASC_NODE":"242.5697","COUNTRY_CODE":"US","OBJECT_NAME":"STARLINK-1742","SEMIMAJOR_AXIS":"6925.396","CLASSIFICATION_TYPE":"U","BSTAR":"-0.00003301300000","INCLINATION":"53.0524","EPHEMERIS_TYPE":"0","ECCENTRICITY":"0.00019810","APOAPSIS":"548.633","NORAD_CAT_ID":"46376"},{"TIME_SYSTEM":"UTC","ARG_OF_PERICENTER":"77.3022","SITE":"AFETR","TLE_LINE2":"2 46378  53.0480 212.0324 0001262  77.3022 282.8143 15.88050240 78709","PERIOD":"90.677","OBJECT_ID":"2020-062BF","MEAN_ANOMALY":"282.8143","MEAN_MOTION_DDOT":"0.0000000000000","RCS_SIZE":"LARGE","MEAN_MOTION":"15.88050240","FILE":"3283711","ELEMENT_SET_NO":"999","PERIAPSIS":"306.908","GP_ID":"194642489","BSTAR":"0.00094698000000","EPHEMERIS_TYPE":"0","INCLINATION":"53.0480","CLASSIFICATION_TYPE":"U","SEMIMAJOR_AXIS":"6685.887","OBJECT_NAME":"STARLINK-1751","NORAD_CAT_ID":"46378","ECCENTRICITY":"0.00012620","APOAPSIS":"308.596","RA_OF_ASC_NODE":"212.0324","DECAY_DATE":null,"COUNTRY_CODE":"US","LAUNCH_DATE":"2020-09-03","OBJECT_TYPE":"PAYLOAD","REV_AT_EPOCH":"7870","MEAN_MOTION_DOT":"0.00270978","EPOCH":"2022-01-25T21:53:53.282400","MEAN_ELEMENT_THEORY":"SGP4","TLE_LINE1":"1 46378U 20062BF  22025.91242225  .00270978  00000-0  94698-3 0  9998","REF_FRAME":"TEME","CENTER_NAME":"EARTH"},{"MEAN_MOTION":"15.06403124","RCS_SIZE":"LARGE","FILE":"3283711","GP_ID":"194642739","ELEMENT_SET_NO":"999","PERIAPSIS":"545.755","SITE":"AFETR","TIME_SYSTEM":"UTC","ARG_OF_PERICENTER":"68.3962","PERIOD":"95.592","TLE_LINE2":"2 46380  53.0546 267.4236 0002092  68.3962 291.7249 15.06403124 77939","OBJECT_ID":"2020-062BH","MEAN_MOTION_DDOT":"0.0000000000000","MEAN_ANOMALY":"291.7249","LAUNCH_DATE":"2020-09-03","TLE_LINE1":"1 46380U 20062BH  22025.89240678  .00000391  00000-0  45133-4 0  9999","MEAN_ELEMENT_THEORY":"SGP4","REF_FRAME":"TEME","OBJECT_TYPE":"PAYLOAD","EPOCH":"2022-01-25T21:25:03.945792","MEAN_MOTION_DOT":"0.00000391","REV_AT_EPOCH":"7793","CENTER_NAME":"EARTH","OBJECT_NAME":"STARLINK-1758","BSTAR":"0.00004513300000","INCLINATION":"53.0546","EPHEMERIS_TYPE":"0","CLASSIFICATION_TYPE":"U","SEMIMAJOR_AXIS":"6925.339","NORAD_CAT_ID":"46380","ECCENTRICITY":"0.00020920","APOAPSIS":"548.653","DECAY_DATE":null,"RA_OF_ASC_NODE":"267.4236","COUNTRY_CODE":"US"},{"COUNTRY_CODE":"US","DECAY_DATE":null,"RA_OF_ASC_NODE":"242.5213","APOAPSIS":"548.355","ECCENTRICITY":"0.00016420","NORAD_CAT_ID":"46382","OBJECT_NAME":"STARLINK-1769","SEMIMAJOR_AXIS":"6925.352","INCLINATION":"53.0546","BSTAR":"-0.00000532950000","EPHEMERIS_TYPE":"0","CLASSIFICATION_TYPE":"U","CENTER_NAME":"EARTH","REF_FRAME":"TEME","TLE_LINE1":"1 46382U 20062BK  22025.87443717 -.00000361  00000-0 -53295-5 0  9996","MEAN_ELEMENT_THEORY":"SGP4","OBJECT_TYPE":"PAYLOAD","EPOCH":"2022-01-25T20:59:11.371488","MEAN_MOTION_DOT":"-0.00000361","REV_AT_EPOCH":"7828","LAUNCH_DATE":"2020-09-03","MEAN_MOTION_DDOT":"0.0000000000000","MEAN_ANOMALY":"286.4520","OBJECT_ID":"2020-062BK","PERIOD":"95.592","TLE_LINE2":"2 46382  53.0546 242.5213 0001642  73.6650 286.4520 15.06398750 78283","SITE":"AFETR","TIME_SYSTEM":"UTC","ARG_OF_PERICENTER":"73.6650","GP_ID":"194643990","PERIAPSIS":"546.080","ELEMENT_SET_NO":"999","FILE":"3283711","MEAN_MOTION":"15.06398750","RCS_SIZE":"LARGE"},{"DECAY_DATE":null,"RA_OF_ASC_NODE":"287.2765","COUNTRY_CODE":"US","OBJECT_NAME":"STARLINK-1770","EPHEMERIS_TYPE":"0","BSTAR":"-0.00008366400000","INCLINATION":"53.0554","CLASSIFICATION_TYPE":"U","SEMIMAJOR_AXIS":"6925.351","NORAD_CAT_ID":"46383","APOAPSIS":"548.614","ECCENTRICITY":"0.00020190","CENTER_NAME":"EARTH","LAUNCH_DATE":"2020-09-03","TLE_LINE1":"1 46383U 20062BL  22025.92741761 -.00001528  00000-0 -83664-4 0  9991","MEAN_ELEMENT_THEORY":"SGP4","REF_FRAME":"TEME","EPOCH":"2022-01-25T22:15:28.881504","OBJECT_TYPE":"PAYLOAD","MEAN_MOTION_DOT":"-0.00001528","REV_AT_EPOCH":"7765","OBJECT_ID":"2020-062BL","MEAN_MOTION_DDOT":"0.0000000000000","MEAN_ANOMALY":"289.8652","SITE":"AFETR","ARG_OF_PERICENTER":"70.2555","TIME_SYSTEM":"UTC","PERIOD":"95.592","TLE_LINE2":"2 46383  53.0554 287.2765 0002019  70.2555 289.8652 15.06399184 77652","GP_ID":"194643741","ELEMENT_SET_NO":"999","PERIAPSIS":"545.818","MEAN_MOTION":"15.06399184","RCS_SIZE":"LARGE","FILE":"3283711"},{"GP_ID":"194642989","PERIAPSIS":"546.041","ELEMENT_SET_NO":"999","MEAN_MOTION":"15.06401695","RCS_SIZE":"LARGE","FILE":"3283711","OBJECT_ID":"2020-062BM","MEAN_MOTION_DDOT":"0.0000000000000","MEAN_ANOMALY":"283.8798","SITE":"AFETR","ARG_OF_PERICENTER":"76.2378","TIME_SYSTEM":"UTC","PERIOD":"95.592","TLE_LINE2":"2 46384  53.0556 287.2477 0001685  76.2378 283.8798 15.06401695 77658","CENTER_NAME":"EARTH","LAUNCH_DATE":"2020-09-03","REF_FRAME":"TEME","MEAN_ELEMENT_THEORY":"SGP4","TLE_LINE1":"1 46384U 20062BM  22025.93110050  .00000893  00000-0  78875-4 0  9994","OBJECT_TYPE":"PAYLOAD","MEAN_MOTION_DOT":"0.00000893","REV_AT_EPOCH":"7765","EPOCH":"2022-01-25T22:20:47.083200","DECAY_DATE":null,"RA_OF_ASC_NODE":"287.2477","COUNTRY_CODE":"US","OBJECT_NAME":"STARLINK-1771","SEMIMAJOR_AXIS":"6925.343","BSTAR":"0.00007887500000","CLASSIFICATION_TYPE":"U","EPHEMERIS_TYPE":"0","INCLINATION":"53.0556","APOAPSIS":"548.375","ECCENTRICITY":"0.00016850","NORAD_CAT_ID":"46384"},{"SITE":"AFETR","ARG_OF_PERICENTER":"86.3362","TIME_SYSTEM":"UTC","PERIOD":"95.592","TLE_LINE2":"2 46532  53.0545  87.5498 0001346  86.3362 273.7781 15.06397191 72845","OBJECT_ID":"2020-070A","MEAN_MOTION_DDOT":"0.0000000000000","MEAN_ANOMALY":"273.7781","MEAN_MOTION":"15.06397191","RCS_SIZE":"LARGE","FILE":"3283711","GP_ID":"194644004","PERIAPSIS":"546.290","ELEMENT_SET_NO":"999","OBJECT_NAME":"STARLINK-1644","SEMIMAJOR_AXIS":"6925.357","BSTAR":"-0.00005126900000","EPHEMERIS_TYPE":"0","CLASSIFICATION_TYPE":"U","INCLINATION":"53.0545","ECCENTRICITY":"0.00013460","APOAPSIS":"548.154","NORAD_CAT_ID":"46532","DECAY_DATE":null,"RA_OF_ASC_NODE":"87.5498","COUNTRY_CODE":"US","LAUNCH_DATE":"2020-10-06","REF_FRAME":"TEME","TLE_LINE1":"1 46532U 20070A   22025.86475996 -.00001045  00000-0 -51269-4 0  9993","MEAN_ELEMENT_THEORY":"SGP4","EPOCH":"2022-01-25T20:45:15.260544","OBJECT_TYPE":"PAYLOAD","MEAN_MOTION_DOT":"-0.00001045","REV_AT_EPOCH":"7284","CENTER_NAME":"EARTH"},{"FILE":"3283711","RCS_SIZE":"LARGE","MEAN_MOTION":"15.06397310","PERIAPSIS":"546.278","ELEMENT_SET_NO":"999","GP_ID":"194643755","TLE_LINE2":"2 46533  53.0513  88.6929 0001363  78.4333 281.6808 15.06397310 72808","PERIOD":"95.592","TIME_SYSTEM":"UTC","ARG_OF_PERICENTER":"78.4333","SITE":"AFETR","MEAN_ANOMALY":"281.6808","MEAN_MOTION_DDOT":"0.0000000000000","OBJECT_ID":"2020-070B","OBJECT_TYPE":"PAYLOAD","MEAN_MOTION_DOT":"-0.00002167","EPOCH":"2022-01-25T14:39:00.865152","REV_AT_EPOCH":"7280","REF_FRAME":"TEME","MEAN_ELEMENT_THEORY":"SGP4","TLE_LINE1":"1 46533U 20070B   22025.61042668 -.00002167  00000-0 -12661-3 0  9991","LAUNCH_DATE":"2020-10-06","CENTER_NAME":"EARTH","APOAPSIS":"548.166","ECCENTRICITY":"0.00013630","NORAD_CAT_ID":"46533","SEMIMAJOR_AXIS":"6925.357","BSTAR":"-0.00012661000000","EPHEMERIS_TYPE":"0","INCLINATION":"53.0513","CLASSIFICATION_TYPE":"U","OBJECT_NAME":"STARLINK-1648","COUNTRY_CODE":"US","RA_OF_ASC_NODE":"88.6929","DECAY_DATE":null}];
